OBJECT_NAME,OBJECT_ID,EPOCH,MEAN_MOTION,ECCENTRICITY,INCLINATION,RA_OF_ASC_NODE,ARG_OF_PERICENTER,MEAN_ANOMALY,EPHEMERIS_TYPE,CLASSIFICATION_TYPE,NORAD_CAT_ID,ELEMENT_SET_NO,REV_AT_EPOCH,BSTAR,MEAN_MOTION_DOT,MEAN_MOTION_DDOT
KKS-1 (KISEKI),2009-002H,2026-05-17T11:47:12.738624,14.83036342,.0008802,98.1195,59.4486,38.3248,321.8589,0,U,33499,999,93164,.10468E-3,.796E-5,0
UK-DMC 2,2009-041C,2026-05-17T12:23:17.155392,14.75973763,.0001634,97.8788,273.2409,79.5217,280.6177,0,U,35683,999,90204,.18374E-4,.77E-6,0
OCEANSAT-2,2009-051A,2026-05-17T12:46:10.396128,13.99649893,.0014926,98.2300,127.4459,328.3037,31.7230,0,U,35931,999,87504,.16312E-3,.201E-5,0
SWISSCUBE,2009-051B,2026-05-17T05:50:21.730848,14.62416177,.0005899,98.4056,44.5912,319.4811,40.5950,0,U,35932,999,88463,.13112E-3,.614E-5,0
BEESAT-1,2009-051C,2026-05-17T05:40:55.174080,14.61665049,.0004729,98.3985,44.2844,338.5961,21.5041,0,U,35933,999,88466,.11209E-3,.509E-5,0
ITUPSAT1,2009-051E,2026-05-17T11:23:30.185088,14.60389786,.0007125,98.4070,43.7503,344.8531,15.2454,0,U,35935,999,88425,.10668E-3,.468E-5,0
DMSP 5D-3 F18 (USA 210),2009-057A,2026-05-17T12:30:04.026816,14.14878344,.0010762,98.9028,118.3597,344.5886,15.4958,0,U,35951,999,85525,.1115E-3,.171E-5,0
PROBA-2,2009-059B,2026-05-17T11:56:38.961024,14.54848216,.0013676,98.2448,321.2767,21.1216,339.0543,0,U,36037,999,87706,.3108E-4,.88E-6,0
YAOGAN-7,2009-069A,2026-05-17T10:05:32.953056,14.77975954,.0025541,98.0108,23.4723,136.0792,224.2455,0,U,36110,999,88508,.47362E-4,.29E-5,0
XIWANG-1 (HOPE-1),2009-072B,2026-05-17T11:08:30.374880,13.16438560,.0007022,100.4008,91.7900,308.3719,51.6763,0,U,36122,999,78896,.44478E-3,.125E-5,0
COSMOS 2463,2010-017A,2026-05-17T11:33:25.921728,13.71663514,.0035454,82.9592,272.2671,213.3935,214.3675,0,U,36519,999,80372,.17215E-4,.31E-6,0
CARTOSAT-2B,2010-035A,2026-05-17T13:11:14.558784,14.78618383,.0010092,97.9979,188.2908,293.4956,66.5194,0,U,36795,999,85532,.32666E-4,.187E-5,0
TISAT 1,2010-035E,2026-05-17T06:27:46.893600,15.30448822,.0003142,98.0706,81.1108,44.8086,315.3406,0,U,36799,999,86297,.46348E-3,.13573E-3,0
YAOGAN-10,2010-038A,2026-05-17T13:58:53.229792,14.85248348,.0001547,97.8994,161.2303,93.5387,66.3000,0,U,36834,999,85266,.20318E-3,.1689E-4,0
SHIJIAN-6 04B (SJ-6 04B),2010-051B,2026-05-17T12:32:50.823744,14.99258593,.0012131,97.8712,142.6220,51.0934,309.1368,0,U,37180,999,85108,-.61065E-5,-.136E-5,0
FENGYUN 3B,2010-059A,2026-05-17T13:27:18.478656,14.14836120,.0020976,98.9644,183.4414,273.9853,246.6275,0,U,37214,999,80309,.32667E-3,.586E-5,0
COSMO-SKYMED 4,2010-060A,2026-05-17T12:34:28.233696,14.82155269,.0001342,97.8878,321.5682,85.1870,274.9496,0,U,37216,999,84002,.11299E-4,.38E-6,0
O/OREOS (USA 219),2010-062C,2026-05-17T10:56:01.152096,14.93603117,.0012813,71.9681,149.9434,130.3535,229.8756,0,U,37224,999,11205,.11705E-3,.1174E-4,0
RESOURCESAT-2,2011-015A,2026-05-17T11:20:30.039360,14.21605082,.0010932,98.7653,205.1241,352.1809,7.9196,0,U,37387,999,78181,.48829E-4,.63E-6,0
YOUTHSAT,2011-015B,2026-05-17T11:53:58.032384,14.25616223,.0015729,98.3670,112.9376,73.4062,40.3405,0,U,37388,999,78326,.59029E-4,.99E-6,0
APRIZESAT 6,2011-044F,2026-05-17T07:59:00.775968,14.76869335,.0042977,98.2382,47.2006,182.8978,303.9348,0,U,37793,999,79259,.58671E-4,.362E-5,0
JUGNU,2011-058B,2026-05-17T07:20:34.446336,14.13767009,.0018783,19.9592,136.0371,95.4598,295.4309,0,U,37839,999,75465,.54777E-4,.372E-5,0
SRMSAT,2011-058D,2026-05-17T09:35:19.112064,14.11568478,.0011604,19.9716,245.8254,225.2907,194.6709,0,U,37841,999,75346,.55047E-4,.367E-5,0
SUOMI NPP,2011-061A,2026-05-17T12:54:48.250080,14.19510371,.0002776,98.7944,78.6260,66.5855,293.5613,0,U,37849,999,75409,.36735E-4,.33E-6,0
YAOGAN-12,2011-066B,2026-05-17T12:28:25.067712,15.26181203,.0009085,97.1169,177.5350,345.6219,14.4760,0,U,37875,999,80736,.21814E-3,.5577E-4,0
BEIDOU-2 M4,2012-018B,2026-05-16T10:34:11.239104,1.86229502,.0010954,55.6865,305.1615,280.5939,79.2611,0,U,38251,999,9535,0,-.53E-6,0
