KKS-1 (KISEKI)          
1 33499U 09002H   26137.49111966  .00000796  00000+0  10468-3 0  9998
2 33499  98.1195  59.4486 0008802  38.3248 321.8589 14.83036342931648
UK-DMC 2                
1 35683U 09041C   26137.51617078  .00000077  00000+0  18374-4 0  9993
2 35683  97.8788 273.2409 0001634  79.5217 280.6177 14.75973763902044
OCEANSAT-2              
1 35931U 09051A   26137.53206477  .00000201  00000+0  16312-3 0  9997
2 35931  98.2300 127.4459 0014926 328.3037  31.7230 13.99649893875046
SWISSCUBE               
1 35932U 09051B   26137.24330707  .00000614  00000+0  13112-3 0  9993
2 35932  98.4056  44.5912 0005899 319.4811  40.5950 14.62416177884630
BEESAT-1                
1 35933U 09051C   26137.23674970  .00000509  00000+0  11209-3 0  9994
2 35933  98.3985  44.2844 0004729 338.5961  21.5041 14.61665049884667
ITUPSAT1                
1 35935U 09051E   26137.47465492  .00000468  00000+0  10668-3 0  9991
2 35935  98.4070  43.7503 0007125 344.8531  15.2454 14.60389786884250
DMSP 5D-3 F18 (USA 210) 
1 35951U 09057A   26137.52087994  .00000171  00000+0  11150-3 0  9996
2 35951  98.9028 118.3597 0010762 344.5886  15.4958 14.14878344855250
PROBA-2                 
1 36037U 09059B   26137.49767316  .00000088  00000+0  31080-4 0  9995
2 36037  98.2448 321.2767 0013676  21.1216 339.0543 14.54848216877068
YAOGAN-7                
1 36110U 09069A   26137.42052029  .00000290  00000+0  47362-4 0  9994
2 36110  98.0108  23.4723 0025541 136.0792 224.2455 14.77975954885086
XIWANG-1 (HOPE-1)       
1 36122U 09072B   26137.46424045  .00000125  00000+0  44478-3 0  9997
2 36122 100.4008  91.7900 0007022 308.3719  51.6763 13.16438560788960
COSMOS 2463             
1 36519U 10017A   26137.48155002  .00000031  00000+0  17215-4 0  9990
2 36519  82.9592 272.2671 0035454 213.3935 214.3675 13.71663514803720
CARTOSAT-2B             
1 36795U 10035A   26137.54947406  .00000187  00000+0  32666-4 0  9999
2 36795  97.9979 188.2908 0010092 293.4956  66.5194 14.78618383855321
TISAT 1                 
1 36799U 10035E   26137.26929275  .00013573  00000+0  46348-3 0  9990
2 36799  98.0706  81.1108 0003142  44.8086 315.3406 15.30448822862976
YAOGAN-10               
1 36834U 10038A   26137.58256053  .00001689  00000+0  20318-3 0  9999
2 36834  97.8994 161.2303 0001547  93.5387  66.3000 14.85248348852669
SHIJIAN-6 04B (SJ-6 04B)
1 37180U 10051B   26137.52281046 -.00000136  00000+0 -61065-5 0  9997
2 37180  97.8712 142.6220 0012131  51.0934 309.1368 14.99258593851089
FENGYUN 3B              
1 37214U 10059A   26137.56063054  .00000586  00000+0  32667-3 0  9995
2 37214  98.9644 183.4414 0020976 273.9853 246.6275 14.14836120803097
COSMO-SKYMED 4          
1 37216U 10060A   26137.52393789  .00000038  00000+0  11299-4 0  9997
2 37216  97.8878 321.5682 0001342  85.1870 274.9496 14.82155269840022
O/OREOS (USA 219)       
1 37224U 10062C   26137.45556889  .00001174  00000+0  11705-3 0  9995
2 37224  71.9681 149.9434 0012813 130.3535 229.8756 14.93603117112054
RESOURCESAT-2           
1 37387U 11015A   26137.47256990  .00000063  00000+0  48829-4 0  9990
2 37387  98.7653 205.1241 0010932 352.1809   7.9196 14.21605082781812
YOUTHSAT                
1 37388U 11015B   26137.49581056  .00000099  00000+0  59029-4 0  9990
2 37388  98.3670 112.9376 0015729  73.4062  40.3405 14.25616223783263
APRIZESAT 6             
1 37793U 11044F   26137.33264787  .00000362  00000+0  58671-4 0  9999
2 37793  98.2382  47.2006 0042977 182.8978 303.9348 14.76869335792598
JUGNU                   
1 37839U 11058B   26137.30595424  .00000372  00000+0  54777-4 0  9991
2 37839  19.9592 136.0371 0018783  95.4598 295.4309 14.13767009754652
SRMSAT                  
1 37841U 11058D   26137.39952676  .00000367  00000+0  55047-4 0  9994
2 37841  19.9716 245.8254 0011604 225.2907 194.6709 14.11568478753463
SUOMI NPP               
1 37849U 11061A   26137.53805845  .00000033  00000+0  36735-4 0  9990
2 37849  98.7944  78.6260 0002776  66.5855 293.5613 14.19510371754096
YAOGAN-12               
1 37875U 11066B   26137.51973458  .00005577  00000+0  21814-3 0  9997
2 37875  97.1169 177.5350 0009085 345.6219  14.4760 15.26181203807360
BEIDOU-2 M4             
1 38251U 12018B   26136.44040786 -.00000053  00000+0  00000+0 0  9999
2 38251  55.6865 305.1615 0010954 280.5939  79.2611  1.86229502 95355
